{
"type": "FeatureCollection",
"name": "statistical-areas-block",
"crs": { "type": "name", "properties": { "name": "urn:ogc:def:crs:OGC:1.3:CRS84" } },
"features": [
{ "type": "Feature", "properties": { "oid_chelka": 25095, "ms_gush": 6135, "k_status_hesder": 0, "ms_chelka": 43, "ms_shetach_rashum": 3575, "ms_shetach": 3521.07, "tr_idkun_acharon": 1597881600000, "k_input_source": 2, "tr_chelka": 662860800000, "heara": "2675-2019", "sw_baalut": -1, "ms_gush_vechelka": 613543, "k_dargat_diyuk": 15, "date_import": "30/03/2026 00:29:18", "Shape_Length": 840.83419242848186, "Shape_Area": 3521.0737065016874, "OBJECTID": 2634, "SEMEL_YISHUV": 5000, "SHEM_YISHUV": "תל אביב -יפו", "SHEM_YISHUV_ENGLISH": "TEL AVIV - YAFO", "STAT_2022": 1011, "YISHUV_STAT_2022": 50001011, "ROVA": 10, "TAT_ROVA": 101, "COD_TIFKUD": 1, "Shape__Area": 274150.65818023682, "Shape__Length": 2736.3407022121501, "intersection_area": 4.2218142063969273 }, "geometry": { "type": "Polygon", "coordinates": [ [ [ 34.792712102407243, 32.051240358608545 ], [ 34.792800411676389, 32.051225756774087 ], [ 34.792799955469334, 32.051222232682015 ], [ 34.792759068483711, 32.051228752655284 ], [ 34.792711244512539, 32.051233756207701 ], [ 34.792712102407243, 32.051240358608545 ] ] ] } },
{ "type": "Feature", "properties": { "oid_chelka": 25095, "ms_gush": 6135, "k_status_hesder": 0, "ms_chelka": 43, "ms_shetach_rashum": 3575, "ms_shetach": 3521.07, "tr_idkun_acharon": 1597881600000, "k_input_source": 2, "tr_chelka": 662860800000, "heara": "2675-2019", "sw_baalut": -1, "ms_gush_vechelka": 613543, "k_dargat_diyuk": 15, "date_import": "30/03/2026 00:29:18", "Shape_Length": 840.83419242848186, "Shape_Area": 3521.0737065016874, "OBJECTID": 2636, "SEMEL_YISHUV": 5000, "SHEM_YISHUV": "תל אביב -יפו", "SHEM_YISHUV_ENGLISH": "TEL AVIV - YAFO", "STAT_2022": 1013, "YISHUV_STAT_2022": 50001013, "ROVA": 10, "TAT_ROVA": 101, "COD_TIFKUD": 1, "Shape__Area": 124280.06518554688, "Shape__Length": 1561.9240909428966, "intersection_area": 1724.0443643385051 }, "geometry": { "type": "Polygon", "coordinates": [ [ [ 34.792231092283352, 32.047538336381095 ], [ 34.792473148154308, 32.049401319149695 ], [ 34.792491030026376, 32.049372444789057 ], [ 34.792548462614597, 32.049279468579499 ], [ 34.792526387883598, 32.04910893783655 ], [ 34.792324124578677, 32.047546412251961 ], [ 34.792231092283352, 32.047538336381095 ] ] ] } },
{ "type": "Feature", "properties": { "oid_chelka": 25095, "ms_gush": 6135, "k_status_hesder": 0, "ms_chelka": 43, "ms_shetach_rashum": 3575, "ms_shetach": 3521.07, "tr_idkun_acharon": 1597881600000, "k_input_source": 2, "tr_chelka": 662860800000, "heara": "2675-2019", "sw_baalut": -1, "ms_gush_vechelka": 613543, "k_dargat_diyuk": 15, "date_import": "30/03/2026 00:29:18", "Shape_Length": 840.83419242848186, "Shape_Area": 3521.0737065016874, "OBJECTID": 2637, "SEMEL_YISHUV": 5000, "SHEM_YISHUV": "תל אביב -יפו", "SHEM_YISHUV_ENGLISH": "TEL AVIV - YAFO", "STAT_2022": 1014, "YISHUV_STAT_2022": 50001014, "ROVA": 10, "TAT_ROVA": 101, "COD_TIFKUD": 1, "Shape__Area": 231416.20948028564, "Shape__Length": 2081.2714928733185, "intersection_area": 1792.8075690233773 }, "geometry": { "type": "Polygon", "coordinates": [ [ [ 34.792711244512539, 32.051233756207701 ], [ 34.792759068483711, 32.051228752655284 ], [ 34.792799955469334, 32.051222232682015 ], [ 34.792568112399259, 32.049431265718262 ], [ 34.792548462614597, 32.049279468579499 ], [ 34.792491030026376, 32.049372444789057 ], [ 34.792473148154308, 32.049401319149695 ], [ 34.792711244512539, 32.051233756207701 ] ] ] } },
{ "type": "Feature", "properties": { "oid_chelka": 26011, "ms_gush": 6135, "k_status_hesder": 0, "ms_chelka": 110, "ms_shetach_rashum": 2443, "ms_shetach": 2477.87, "tr_idkun_acharon": 1597881600000, "k_input_source": 2, "tr_chelka": 662860800000, "heara": "2675-2019", "sw_baalut": -1, "ms_gush_vechelka": 6135110, "k_dargat_diyuk": 15, "date_import": "30/03/2026 00:29:18", "Shape_Length": 366.04572149051234, "Shape_Area": 2477.8671455010126, "OBJECTID": 2636, "SEMEL_YISHUV": 5000, "SHEM_YISHUV": "תל אביב -יפו", "SHEM_YISHUV_ENGLISH": "TEL AVIV - YAFO", "STAT_2022": 1013, "YISHUV_STAT_2022": 50001013, "ROVA": 10, "TAT_ROVA": 101, "COD_TIFKUD": 1, "Shape__Area": 124280.06518554688, "Shape__Length": 1561.9240909428966, "intersection_area": 2477.8671747148346 }, "geometry": { "type": "Polygon", "coordinates": [ [ [ 34.792324124578677, 32.047546412251961 ], [ 34.792526387883598, 32.04910893783655 ], [ 34.792661586187961, 32.048896572055448 ], [ 34.79248930711239, 32.047558410824465 ], [ 34.792324124578677, 32.047546412251961 ] ] ] } },
{ "type": "Feature", "properties": { "oid_chelka": 43477, "ms_gush": 6135, "k_status_hesder": 0, "ms_chelka": 44, "ms_shetach_rashum": 11476, "ms_shetach": 11584.12, "tr_idkun_acharon": 1597881600000, "k_input_source": 2, "tr_chelka": 662860800000, "heara": "2675-2019", "sw_baalut": -1, "ms_gush_vechelka": 613544, "k_dargat_diyuk": 15, "date_import": "30/03/2026 00:29:18", "Shape_Length": 889.9780435176574, "Shape_Area": 11584.116395996698, "OBJECTID": 2634, "SEMEL_YISHUV": 5000, "SHEM_YISHUV": "תל אביב -יפו", "SHEM_YISHUV_ENGLISH": "TEL AVIV - YAFO", "STAT_2022": 1011, "YISHUV_STAT_2022": 50001011, "ROVA": 10, "TAT_ROVA": 101, "COD_TIFKUD": 1, "Shape__Area": 274150.65818023682, "Shape__Length": 2736.3407022121501, "intersection_area": 31.22106599461727 }, "geometry": { "type": "Polygon", "coordinates": [ [ [ 34.792433399217217, 32.051286454618172 ], [ 34.792712102407243, 32.051240358608545 ], [ 34.792711244512539, 32.051233756207701 ], [ 34.792659594495014, 32.051239160036864 ], [ 34.79254865314023, 32.05125620515016 ], [ 34.792466537995722, 32.051268924155131 ], [ 34.792431666517572, 32.051273711051728 ], [ 34.792433399217217, 32.051286454618172 ] ] ] } },
{ "type": "Feature", "properties": { "oid_chelka": 43477, "ms_gush": 6135, "k_status_hesder": 0, "ms_chelka": 44, "ms_shetach_rashum": 11476, "ms_shetach": 11584.12, "tr_idkun_acharon": 1597881600000, "k_input_source": 2, "tr_chelka": 662860800000, "heara": "2675-2019", "sw_baalut": -1, "ms_gush_vechelka": 613544, "k_dargat_diyuk": 15, "date_import": "30/03/2026 00:29:18", "Shape_Length": 889.9780435176574, "Shape_Area": 11584.116395996698, "OBJECTID": 2636, "SEMEL_YISHUV": 5000, "SHEM_YISHUV": "תל אביב -יפו", "SHEM_YISHUV_ENGLISH": "TEL AVIV - YAFO", "STAT_2022": 1013, "YISHUV_STAT_2022": 50001013, "ROVA": 10, "TAT_ROVA": 101, "COD_TIFKUD": 1, "Shape__Area": 124280.06518554688, "Shape__Length": 1561.9240909428966, "intersection_area": 6528.6710190107933 }, "geometry": { "type": "Polygon", "coordinates": [ [ [ 34.791920947541627, 32.047517352998732 ], [ 34.792230516680007, 32.049794281696705 ], [ 34.792297439542722, 32.04968573491751 ], [ 34.792401852667503, 32.049516441764233 ], [ 34.792473148154308, 32.049401319149695 ], [ 34.792231092283352, 32.047538336381095 ], [ 34.791920947541627, 32.047517352998732 ] ] ] } },
{ "type": "Feature", "properties": { "oid_chelka": 43477, "ms_gush": 6135, "k_status_hesder": 0, "ms_chelka": 44, "ms_shetach_rashum": 11476, "ms_shetach": 11584.12, "tr_idkun_acharon": 1597881600000, "k_input_source": 2, "tr_chelka": 662860800000, "heara": "2675-2019", "sw_baalut": -1, "ms_gush_vechelka": 613544, "k_dargat_diyuk": 15, "date_import": "30/03/2026 00:29:18", "Shape_Length": 889.9780435176574, "Shape_Area": 11584.116395996698, "OBJECTID": 2637, "SEMEL_YISHUV": 5000, "SHEM_YISHUV": "תל אביב -יפו", "SHEM_YISHUV_ENGLISH": "TEL AVIV - YAFO", "STAT_2022": 1014, "YISHUV_STAT_2022": 50001014, "ROVA": 10, "TAT_ROVA": 101, "COD_TIFKUD": 1, "Shape__Area": 231416.20948028564, "Shape__Length": 2081.2714928733185, "intersection_area": 5024.2244464778896 }, "geometry": { "type": "Polygon", "coordinates": [ [ [ 34.792431666517572, 32.051273711051728 ], [ 34.792466537995722, 32.051268924155131 ], [ 34.79254865314023, 32.05125620515016 ], [ 34.792659594495014, 32.051239160036864 ], [ 34.792711244512539, 32.051233756207701 ], [ 34.792473148154308, 32.049401319149695 ], [ 34.792401852667503, 32.049516441764233 ], [ 34.792297439542722, 32.04968573491751 ], [ 34.792230516680007, 32.049794281696705 ], [ 34.792431666517572, 32.051273711051728 ] ] ] } },
{ "type": "Feature", "properties": { "oid_chelka": 43478, "ms_gush": 6135, "k_status_hesder": 0, "ms_chelka": 71, "ms_shetach_rashum": 1991, "ms_shetach": 1984.21, "tr_idkun_acharon": 1597881600000, "k_input_source": 2, "tr_chelka": 662860800000, "heara": "2675-2019", "sw_baalut": -1, "ms_gush_vechelka": 613571, "k_dargat_diyuk": 15, "date_import": "30/03/2026 00:29:18", "Shape_Length": 315.32537687493198, "Shape_Area": 1984.214188999023, "OBJECTID": 2636, "SEMEL_YISHUV": 5000, "SHEM_YISHUV": "תל אביב -יפו", "SHEM_YISHUV_ENGLISH": "TEL AVIV - YAFO", "STAT_2022": 1013, "YISHUV_STAT_2022": 50001013, "ROVA": 10, "TAT_ROVA": 101, "COD_TIFKUD": 1, "Shape__Area": 124280.06518554688, "Shape__Length": 1561.9240909428966, "intersection_area": 1984.2142120700771 }, "geometry": { "type": "Polygon", "coordinates": [ [ [ 34.79248930711239, 32.047558410824465 ], [ 34.792661586187961, 32.048896572055448 ], [ 34.792788418918754, 32.048698472367953 ], [ 34.792644853117679, 32.047566013209128 ], [ 34.79248930711239, 32.047558410824465 ] ] ] } }
]
}
